ONEWEB-0264             
1 48982U 21060R   23248.94066908  .00000060  00000+0  12226-3 0  9992
2 48982  87.8999  70.8623 0001755  89.6764 270.4568 13.16595187107294
ONEWEB-0266             
1 48984U 21060T   23248.43086239  .00000252  00000+0  62462-3 0  9997
2 48984  87.8981  70.9524 0001747  84.2799 275.8531 13.16594662105922
ONEWEB-0267             
1 48985U 21060U   23248.51739562  .00000006  00000+0 -17476-4 0  9995
2 48985  87.8980  70.9362 0002014 101.1751 258.9606 13.16593114105945
ONEWEB-0268             
1 48986U 21060V   23248.78972466  .00000111  00000+0  25770-3 0  9998
2 48986  87.8980  70.8839 0001641  92.3707 267.7612 13.16598579107533
ONEWEB-0269             
1 48987U 21060W   23248.46672338 -.00000038  00000+0 -13351-3 0  9991
2 48987  87.9082  70.9453 0001652  90.1041 270.0279 13.16600194105979
ONEWEB-0270             
1 48988U 21060X   23248.93959479  .00000013  00000+0  36491-6 0  9992
2 48988  87.8984  70.8684 0002483  93.1134 267.0281 13.16591042107381
ONEWEB-0271             
1 48989U 21060Y   23249.00292296 -.00000003  00000+0 -42806-4 0  9995
2 48989  87.8981  70.8312 0002158  98.4989 261.6387 13.16591632107373
ONEWEB-0272             
1 48990U 21060Z   23248.41817454  .00000059  00000+0  12075-3 0  9993
2 48990  87.9081  70.9679 0001996  97.4708 262.6650 13.16592777105958
